CCSDS_OMM_VERS = 2.0
CREATION_DATE  = 
ORIGINATOR     = 

OBJECT_NAME    = STARLINK-36810
OBJECT_ID      = 2026-035V
CENTER_NAME    = EARTH
REF_FRAME      = TEME
TIME_SYSTEM    = UTC
MEAN_ELEMENT_THEORY = SGP/SGP4

EPOCH          = 2026-03-02T22:00:01.999584
MEAN_MOTION    = 16.03464957
ECCENTRICITY   = .00008971
INCLINATION    = 97.2760
RA_OF_ASC_NODE = 353.7299
ARG_OF_PERICENTER = 108.4044
MEAN_ANOMALY   = 148.3078

EPHEMERIS_TYPE = 0
CLASSIFICATION_TYPE = U
NORAD_CAT_ID   = 67898
ELEMENT_SET_NO = 999
REV_AT_EPOCH   = 266
BSTAR          = -.16421543E-2
MEAN_MOTION_DOT = -.1013323E-1
MEAN_MOTION_DDOT = .34958536E-3

CCSDS_OMM_VERS = 2.0
CREATION_DATE  = 
ORIGINATOR     = 

OBJECT_NAME    = STARLINK-36878
OBJECT_ID      = 2026-035W
CENTER_NAME    = EARTH
REF_FRAME      = TEME
TIME_SYSTEM    = UTC
MEAN_ELEMENT_THEORY = SGP/SGP4

EPOCH          = 2026-03-02T22:00:01.999584
MEAN_MOTION    = 16.03698145
ECCENTRICITY   = .0001038
INCLINATION    = 97.2758
RA_OF_ASC_NODE = 353.7326
ARG_OF_PERICENTER = 114.3459
MEAN_ANOMALY   = 148.4875

EPHEMERIS_TYPE = 0
CLASSIFICATION_TYPE = U
NORAD_CAT_ID   = 67899
ELEMENT_SET_NO = 999
REV_AT_EPOCH   = 266
BSTAR          = -.17469749E-2
MEAN_MOTION_DOT = -.1092267E-1
MEAN_MOTION_DDOT = .40273813E-3

CCSDS_OMM_VERS = 2.0
CREATION_DATE  = 
ORIGINATOR     = 

OBJECT_NAME    = STARLINK-36361
OBJECT_ID      = 2026-035X
CENTER_NAME    = EARTH
REF_FRAME      = TEME
TIME_SYSTEM    = UTC
MEAN_ELEMENT_THEORY = SGP/SGP4

EPOCH          = 2026-03-02T22:00:01.999584
MEAN_MOTION    = 16.03837944
ECCENTRICITY   = .0001014
INCLINATION    = 97.2757
RA_OF_ASC_NODE = 353.7338
ARG_OF_PERICENTER = 123.1436
MEAN_ANOMALY   = 143.0460

EPHEMERIS_TYPE = 0
CLASSIFICATION_TYPE = U
NORAD_CAT_ID   = 67900
ELEMENT_SET_NO = 999
REV_AT_EPOCH   = 266
BSTAR          = -.17524643E-2
MEAN_MOTION_DOT = -.1104704E-1
MEAN_MOTION_DDOT = .41193906E-3

CCSDS_OMM_VERS = 2.0
CREATION_DATE  = 
ORIGINATOR     = 

OBJECT_NAME    = STARLINK-36336
OBJECT_ID      = 2026-035Y
CENTER_NAME    = EARTH
REF_FRAME      = TEME
TIME_SYSTEM    = UTC
MEAN_ELEMENT_THEORY = SGP/SGP4

EPOCH          = 2026-03-02T22:00:01.999584
MEAN_MOTION    = 16.04166794
ECCENTRICITY   = .00009065
INCLINATION    = 97.2759
RA_OF_ASC_NODE = 353.7386
ARG_OF_PERICENTER = 114.5406
MEAN_ANOMALY   = 161.8289

EPHEMERIS_TYPE = 0
CLASSIFICATION_TYPE = U
NORAD_CAT_ID   = 67901
ELEMENT_SET_NO = 999
REV_AT_EPOCH   = 271
BSTAR          = -.17353366E-2
MEAN_MOTION_DOT = -.1115417E-1
MEAN_MOTION_DDOT = .42099767E-3

CCSDS_OMM_VERS = 2.0
CREATION_DATE  = 
ORIGINATOR     = 

OBJECT_NAME    = STARLINK-36876
OBJECT_ID      = 2026-035Z
CENTER_NAME    = EARTH
REF_FRAME      = TEME
TIME_SYSTEM    = UTC
MEAN_ELEMENT_THEORY = SGP/SGP4

EPOCH          = 2026-03-02T22:00:01.999584
MEAN_MOTION    = 16.03920972
ECCENTRICITY   = .00009689
INCLINATION    = 97.2761
RA_OF_ASC_NODE = 353.7359
ARG_OF_PERICENTER = 100.6881
MEAN_ANOMALY   = 168.4291

EPHEMERIS_TYPE = 0
CLASSIFICATION_TYPE = U
NORAD_CAT_ID   = 67902
ELEMENT_SET_NO = 999
REV_AT_EPOCH   = 266
BSTAR          = -.1764723E-2
MEAN_MOTION_DOT = -.1117803E-1
MEAN_MOTION_DDOT = .4214357E-3

CCSDS_OMM_VERS = 2.0
CREATION_DATE  = 
ORIGINATOR     = 

OBJECT_NAME    = STARLINK-36257
OBJECT_ID      = 2026-035AA
CENTER_NAME    = EARTH
REF_FRAME      = TEME
TIME_SYSTEM    = UTC
MEAN_ELEMENT_THEORY = SGP/SGP4

EPOCH          = 2026-03-02T22:00:01.999584
MEAN_MOTION    = 16.04023963
ECCENTRICITY   = .00009055
INCLINATION    = 97.2758
RA_OF_ASC_NODE = 353.7365
ARG_OF_PERICENTER = 96.5414
MEAN_ANOMALY   = 175.6520

EPHEMERIS_TYPE = 0
CLASSIFICATION_TYPE = U
NORAD_CAT_ID   = 67903
ELEMENT_SET_NO = 999
REV_AT_EPOCH   = 271
BSTAR          = -.17546464E-2
MEAN_MOTION_DOT = -.1118241E-1
MEAN_MOTION_DDOT = .4222567E-3

CCSDS_OMM_VERS = 2.0
CREATION_DATE  = 
ORIGINATOR     = 

OBJECT_NAME    = STARLINK-36814
OBJECT_ID      = 2026-036A
CENTER_NAME    = EARTH
REF_FRAME      = TEME
TIME_SYSTEM    = UTC
MEAN_ELEMENT_THEORY = SGP/SGP4

EPOCH          = 2026-03-02T22:00:01.999584
MEAN_MOTION    = 15.84544235
ECCENTRICITY   = .00016556
INCLINATION    = 42.9950
RA_OF_ASC_NODE = 291.3304
ARG_OF_PERICENTER = 279.4635
MEAN_ANOMALY   = 209.7378

EPHEMERIS_TYPE = 0
CLASSIFICATION_TYPE = U
NORAD_CAT_ID   = 67904
ELEMENT_SET_NO = 999
REV_AT_EPOCH   = 255
BSTAR          = -.76888762E-2
MEAN_MOTION_DOT = -.1598795E-1
MEAN_MOTION_DDOT = 0

CCSDS_OMM_VERS = 2.0
CREATION_DATE  = 
ORIGINATOR     = 

OBJECT_NAME    = STARLINK-36729
OBJECT_ID      = 2026-036B
CENTER_NAME    = EARTH
REF_FRAME      = TEME
TIME_SYSTEM    = UTC
MEAN_ELEMENT_THEORY = SGP/SGP4

EPOCH          = 2026-03-02T22:00:01.999584
MEAN_MOTION    = 15.84762540
ECCENTRICITY   = .00016581
INCLINATION    = 42.9946
RA_OF_ASC_NODE = 291.3206
ARG_OF_PERICENTER = 279.9395
MEAN_ANOMALY   = 212.9008

EPHEMERIS_TYPE = 0
CLASSIFICATION_TYPE = U
NORAD_CAT_ID   = 67905
ELEMENT_SET_NO = 999
REV_AT_EPOCH   = 255
BSTAR          = -.74870358E-2
MEAN_MOTION_DOT = -.1576628E-1
MEAN_MOTION_DDOT = 0

CCSDS_OMM_VERS = 2.0
CREATION_DATE  = 
ORIGINATOR     = 

OBJECT_NAME    = STARLINK-36763
OBJECT_ID      = 2026-036C
CENTER_NAME    = EARTH
REF_FRAME      = TEME
TIME_SYSTEM    = UTC
MEAN_ELEMENT_THEORY = SGP/SGP4

EPOCH          = 2026-03-02T22:00:01.999584
MEAN_MOTION    = 15.84958132
ECCENTRICITY   = .00015836
INCLINATION    = 42.9944
RA_OF_ASC_NODE = 291.3114
ARG_OF_PERICENTER = 281.6063
MEAN_ANOMALY   = 214.9183

EPHEMERIS_TYPE = 0
CLASSIFICATION_TYPE = U
NORAD_CAT_ID   = 67906
ELEMENT_SET_NO = 999
REV_AT_EPOCH   = 255
BSTAR          = -.73766806E-2
MEAN_MOTION_DOT = -.1569257E-1
MEAN_MOTION_DDOT = 0

CCSDS_OMM_VERS = 2.0
CREATION_DATE  = 
ORIGINATOR     = 

OBJECT_NAME    = STARLINK-36742
OBJECT_ID      = 2026-036D
CENTER_NAME    = EARTH
REF_FRAME      = TEME
TIME_SYSTEM    = UTC
MEAN_ELEMENT_THEORY = SGP/SGP4

EPOCH          = 2026-03-02T22:00:01.999584
MEAN_MOTION    = 15.85165742
ECCENTRICITY   = .00017097
INCLINATION    = 42.9946
RA_OF_ASC_NODE = 291.3024
ARG_OF_PERICENTER = 275.6185
MEAN_ANOMALY   = 224.4736

EPHEMERIS_TYPE = 0
CLASSIFICATION_TYPE = U
NORAD_CAT_ID   = 67907
ELEMENT_SET_NO = 999
REV_AT_EPOCH   = 255
BSTAR          = -.72133998E-2
MEAN_MOTION_DOT = -.1552613E-1
MEAN_MOTION_DDOT = 0

CCSDS_OMM_VERS = 2.0
CREATION_DATE  = 
ORIGINATOR     = 

OBJECT_NAME    = STARLINK-36827
OBJECT_ID      = 2026-036E
CENTER_NAME    = EARTH
REF_FRAME      = TEME
TIME_SYSTEM    = UTC
MEAN_ELEMENT_THEORY = SGP/SGP4

EPOCH          = 2026-03-02T22:00:01.999584
MEAN_MOTION    = 15.85332827
ECCENTRICITY   = .00014105
INCLINATION    = 42.9947
RA_OF_ASC_NODE = 291.2932
ARG_OF_PERICENTER = 277.1895
MEAN_ANOMALY   = 226.6232

EPHEMERIS_TYPE = 0
CLASSIFICATION_TYPE = U
NORAD_CAT_ID   = 67908
ELEMENT_SET_NO = 999
REV_AT_EPOCH   = 255
BSTAR          = -.71448002E-2
MEAN_MOTION_DOT = -.1550501E-1
MEAN_MOTION_DDOT = 0

CCSDS_OMM_VERS = 2.0
CREATION_DATE  = 
ORIGINATOR     = 

OBJECT_NAME    = STARLINK-36822
OBJECT_ID      = 2026-036F
CENTER_NAME    = EARTH
REF_FRAME      = TEME
TIME_SYSTEM    = UTC
MEAN_ELEMENT_THEORY = SGP/SGP4

EPOCH          = 2026-03-02T22:00:01.999584
MEAN_MOTION    = 15.85517855
ECCENTRICITY   = .00015076
INCLINATION    = 42.9948
RA_OF_ASC_NODE = 291.2843
ARG_OF_PERICENTER = 276.3603
MEAN_ANOMALY   = 231.0632

EPHEMERIS_TYPE = 0
CLASSIFICATION_TYPE = U
NORAD_CAT_ID   = 67909
ELEMENT_SET_NO = 999
REV_AT_EPOCH   = 255
BSTAR          = -.70732305E-2
MEAN_MOTION_DOT = -.1549236E-1
MEAN_MOTION_DDOT = 0

