STARLINK-36810          
1 67898U 26035V   26061.91668981 -.01013323  34959-3 -16422-2 0  9992
2 67898  97.2760 353.7299 0000897 108.4044 148.3078 16.03464957  2664
STARLINK-36878          
1 67899U 26035W   26061.91668981 -.01092267  40274-3 -17470-2 0  9998
2 67899  97.2758 353.7326 0001038 114.3459 148.4875 16.03698145  2661
STARLINK-36361          
1 67900U 26035X   26061.91668981 -.01104704  41194-3 -17525-2 0  9994
2 67900  97.2757 353.7338 0001014 123.1436 143.0460 16.03837944  2666
STARLINK-36336          
1 67901U 26035Y   26061.91668981 -.01115417  42100-3 -17353-2 0  9995
2 67901  97.2759 353.7386 0000906 114.5406 161.8289 16.04166794  2714
STARLINK-36876          
1 67902U 26035Z   26061.91668981 -.01117803  42144-3 -17647-2 0  9991
2 67902  97.2761 353.7359 0000968 100.6881 168.4291 16.03920972  2664
STARLINK-36257          
1 67903U 26035AA  26061.91668981 -.01118241  42226-3 -17546-2 0  9998
2 67903  97.2758 353.7365 0000905  96.5414 175.6520 16.04023963  2710
STARLINK-36814          
1 67904U 26036A   26061.91668981 -.01598795  00000+0 -76889-2 0  9991
2 67904  42.9950 291.3304 0001655 279.4635 209.7378 15.84544235  2551
STARLINK-36729          
1 67905U 26036B   26061.91668981 -.01576628  00000+0 -74870-2 0  9991
2 67905  42.9946 291.3206 0001658 279.9395 212.9008 15.84762540  2556
STARLINK-36763          
1 67906U 26036C   26061.91668981 -.01569257  00000+0 -73767-2 0  9996
2 67906  42.9944 291.3114 0001583 281.6063 214.9183 15.84958132  2552
STARLINK-36742          
1 67907U 26036D   26061.91668981 -.01552613  00000+0 -72134-2 0  9992
2 67907  42.9946 291.3024 0001709 275.6185 224.4736 15.85165742  2551
STARLINK-36827          
1 67908U 26036E   26061.91668981 -.01550501  00000+0 -71448-2 0  9994
2 67908  42.9947 291.2932 0001410 277.1895 226.6232 15.85332827  2559
STARLINK-36822          
1 67909U 26036F   26061.91668981 -.01549236  00000+0 -70732-2 0  9993
2 67909  42.9948 291.2843 0001507 276.3603 231.0632 15.85517855  2557
